start=new Date('2021-12-02T00:00:00.000Z').valueOf();
sats=[{"MEAN_MOTION_DOT":"0.00000440","TLE_LINE2":"2 47776  53.0551  11.0969 0001354  71.0832 289.0303 15.06391184 42090","EPOCH":"2021-12-01T12:00:48.578400","REF_FRAME":"TEME","MEAN_MOTION_DDOT":"0.0000000000000","MEAN_ANOMALY":"289.0303","TLE_LINE1":"1 47776U 21017BG  21335.50056225  .00000440  00000-0  48438-4 0  9990","COUNTRY_CODE":"US","SITE":"AFETR","RA_OF_ASC_NODE":"11.0969","ELEMENT_SET_NO":"999","BSTAR":"0.00004843800000","ARG_OF_PERICENTER":"71.0832","ECCENTRICITY":"0.00013540","EPHEMERIS_TYPE":"0","LAUNCH_DATE":"2021-03-04","CLASSIFICATION_TYPE":"U","TIME_SYSTEM":"UTC","CENTER_NAME":"EARTH","INCLINATION":"53.0551","NORAD_CAT_ID":"47776","MEAN_MOTION":"15.06391184","RCS_SIZE":"LARGE","REV_AT_EPOCH":"4209","SEMIMAJOR_AXIS":"6925.376","FILE":"3229261","DECAY_DATE":null,"PERIOD":"95.593","PERIAPSIS":"546.303","GP_ID":"190865080","OBJECT_ID":"2021-017BG","OBJECT_TYPE":"PAYLOAD","APOAPSIS":"548.178","MEAN_ELEMENT_THEORY":"SGP4","OBJECT_NAME":"STARLINK-2209"},{"FILE":"3229261","DECAY_DATE":null,"SEMIMAJOR_AXIS":"6925.339","PERIOD":"95.592","RCS_SIZE":"LARGE","REV_AT_EPOCH":"4209","GP_ID":"190865075","PERIAPSIS":"546.254","OBJECT_ID":"2021-017BH","OBJECT_NAME":"STARLINK-2210","APOAPSIS":"548.154","MEAN_ELEMENT_THEORY":"SGP4","OBJECT_TYPE":"PAYLOAD","EPHEMERIS_TYPE":"0","CENTER_NAME":"EARTH","TIME_SYSTEM":"UTC","CLASSIFICATION_TYPE":"U","LAUNCH_DATE":"2021-03-04","INCLINATION":"53.0555","MEAN_MOTION":"15.06403154","NORAD_CAT_ID":"47777","SITE":"AFETR","COUNTRY_CODE":"US","TLE_LINE1":"1 47777U 21017BH  21335.50424134  .00001156  00000-0  96490-4 0  9995","RA_OF_ASC_NODE":"11.0862","ELEMENT_SET_NO":"999","BSTAR":"0.00009649000000","ARG_OF_PERICENTER":"70.4706","ECCENTRICITY":"0.00013720","MEAN_MOTION_DOT":"0.00001156","REF_FRAME":"TEME","EPOCH":"2021-12-01T12:06:06.451776","TLE_LINE2":"2 47777  53.0555  11.0862 0001372  70.4706 289.6431 15.06403154 42099","MEAN_ANOMALY":"289.6431","MEAN_MOTION_DDOT":"0.0000000000000"},{"COUNTRY_CODE":"US","TLE_LINE1":"1 47778U 21017BJ  21335.53742425 -.00001535  00000-0 -84184-4 0  9995","SITE":"AFETR","RA_OF_ASC_NODE":"11.0222","ELEMENT_SET_NO":"999","BSTAR":"-0.00008418400000","ARG_OF_PERICENTER":"71.0530","ECCENTRICITY":"0.00013890","MEAN_MOTION_DOT":"-0.00001535","EPOCH":"2021-12-01T12:53:53.455200","TLE_LINE2":"2 47778  53.0332  11.0222 0001389  71.0530 289.0610 15.06389522 42740","REF_FRAME":"TEME","MEAN_MOTION_DDOT":"0.0000000000000","MEAN_ANOMALY":"289.0610","FILE":"3229140","DECAY_DATE":null,"SEMIMAJOR_AXIS":"6925.381","PERIOD":"95.593","RCS_SIZE":"LARGE","REV_AT_EPOCH":"4274","PERIAPSIS":"546.284","GP_ID":"190861430","OBJECT_ID":"2021-017BJ","MEAN_ELEMENT_THEORY":"SGP4","APOAPSIS":"548.208","OBJECT_TYPE":"PAYLOAD","OBJECT_NAME":"STARLINK-2211","EPHEMERIS_TYPE":"0","CLASSIFICATION_TYPE":"U","TIME_SYSTEM":"UTC","LAUNCH_DATE":"2021-03-04","CENTER_NAME":"EARTH","INCLINATION":"53.0332","NORAD_CAT_ID":"47778","MEAN_MOTION":"15.06389522"},{"OBJECT_ID":"2021-017BK","OBJECT_NAME":"STARLINK-2212","OBJECT_TYPE":"PAYLOAD","APOAPSIS":"532.108","MEAN_ELEMENT_THEORY":"SGP4","REV_AT_EPOCH":"4210","RCS_SIZE":"LARGE","DECAY_DATE":null,"FILE":"3229261","PERIOD":"95.254","SEMIMAJOR_AXIS":"6908.986","GP_ID":"190865076","PERIAPSIS":"529.594","INCLINATION":"53.0539","MEAN_MOTION":"15.11754561","NORAD_CAT_ID":"47779","EPHEMERIS_TYPE":"0","CENTER_NAME":"EARTH","LAUNCH_DATE":"2021-03-04","TIME_SYSTEM":"UTC","CLASSIFICATION_TYPE":"U","BSTAR":"0.00274900000000","ARG_OF_PERICENTER":"79.2869","ECCENTRICITY":"0.00018190","SITE":"AFETR","TLE_LINE1":"1 47779U 21017BK  21335.51972045  .00047439  00000-0  27490-2 0  9993","COUNTRY_CODE":"US","RA_OF_ASC_NODE":"10.6598","ELEMENT_SET_NO":"999","MEAN_ANOMALY":"280.8327","MEAN_MOTION_DDOT":"0.0000000000000","MEAN_MOTION_DOT":"0.00047439","REF_FRAME":"TEME","TLE_LINE2":"2 47779  53.0539  10.6598 0001819  79.2869 280.8327 15.11754561 42103","EPOCH":"2021-12-01T12:28:23.846880"},{"REF_FRAME":"TEME","EPOCH":"2021-12-01T11:46:11.831808","TLE_LINE2":"2 47780  53.0556  11.1580 0001551  67.1515 292.9637 15.05582850 42772","MEAN_MOTION_DOT":"-0.00001843","MEAN_ANOMALY":"292.9637","MEAN_MOTION_DDOT":"0.0000000000000","RA_OF_ASC_NODE":"11.1580","ELEMENT_SET_NO":"999","SITE":"AFETR","TLE_LINE1":"1 47780U 21017BL  21335.49041472 -.00001843  00000-0 -10734-3 0  9998","COUNTRY_CODE":"US","ARG_OF_PERICENTER":"67.1515","ECCENTRICITY":"0.00015510","BSTAR":"-0.00010734000000","CENTER_NAME":"EARTH","LAUNCH_DATE":"2021-03-04","TIME_SYSTEM":"UTC","CLASSIFICATION_TYPE":"U","EPHEMERIS_TYPE":"0","NORAD_CAT_ID":"47780","MEAN_MOTION":"15.05582850","INCLINATION":"53.0556","GP_ID":"190859929","PERIAPSIS":"548.645","RCS_SIZE":"LARGE","REV_AT_EPOCH":"4277","FILE":"3229140","PERIOD":"95.644","DECAY_DATE":null,"SEMIMAJOR_AXIS":"6927.854","OBJECT_NAME":"STARLINK-2213","OBJECT_TYPE":"PAYLOAD","MEAN_ELEMENT_THEORY":"SGP4","APOAPSIS":"550.794","OBJECT_ID":"2021-017BL"},{"BSTAR":"-0.00005278800000","ARG_OF_PERICENTER":"68.9110","ECCENTRICITY":"0.00015450","SITE":"AFETR","TLE_LINE1":"1 47781U 21017BM  21335.39735500 -.00001068  00000-0 -52788-4 0  9995","COUNTRY_CODE":"US","ELEMENT_SET_NO":"999","RA_OF_ASC_NODE":"11.5606","MEAN_ANOMALY":"291.2044","MEAN_MOTION_DDOT":"0.0000000000000","MEAN_MOTION_DOT":"-0.00001068","REF_FRAME":"TEME","TLE_LINE2":"2 47781  53.0577  11.5606 0001545  68.9110 291.2044 15.06396424 42711","EPOCH":"2021-12-01T09:32:11.472000","OBJECT_ID":"2021-017BM","OBJECT_NAME":"STARLINK-2223","OBJECT_TYPE":"PAYLOAD","MEAN_ELEMENT_THEORY":"SGP4","APOAPSIS":"548.294","REV_AT_EPOCH":"4271","RCS_SIZE":"LARGE","FILE":"3229140","DECAY_DATE":null,"SEMIMAJOR_AXIS":"6925.360","PERIOD":"95.592","GP_ID":"190860680","PERIAPSIS":"546.155","INCLINATION":"53.0577","MEAN_MOTION":"15.06396424","NORAD_CAT_ID":"47781","EPHEMERIS_TYPE":"0","CENTER_NAME":"EARTH","LAUNCH_DATE":"2021-03-04","TIME_SYSTEM":"UTC","CLASSIFICATION_TYPE":"U"},{"MEAN_ELEMENT_THEORY":"SGP4","APOAPSIS":"548.074","OBJECT_TYPE":"PAYLOAD","OBJECT_NAME":"STARLINK-2257","OBJECT_ID":"2021-018A","PERIAPSIS":"546.376","GP_ID":"190860931","PERIOD":"95.592","FILE":"3229140","DECAY_DATE":null,"SEMIMAJOR_AXIS":"6925.360","RCS_SIZE":"LARGE","REV_AT_EPOCH":"4158","NORAD_CAT_ID":"47787","MEAN_MOTION":"15.06396269","INCLINATION":"53.0568","CLASSIFICATION_TYPE":"U","TIME_SYSTEM":"UTC","LAUNCH_DATE":"2021-03-11","CENTER_NAME":"EARTH","EPHEMERIS_TYPE":"0","ECCENTRICITY":"0.00012260","ARG_OF_PERICENTER":"73.5461","BSTAR":"-0.00001374700000","RA_OF_ASC_NODE":"51.1846","ELEMENT_SET_NO":"999","COUNTRY_CODE":"US","TLE_LINE1":"1 47787U 21018A   21335.48212911 -.00000486  00000-0 -13747-4 0  9993","SITE":"AFETR","MEAN_MOTION_DDOT":"0.0000000000000","MEAN_ANOMALY":"286.5663","EPOCH":"2021-12-01T11:34:15.955104","TLE_LINE2":"2 47787  53.0568  51.1846 0001226  73.5461 286.5663 15.06396269 41585","REF_FRAME":"TEME","MEAN_MOTION_DOT":"-0.00000486"},{"GP_ID":"190864534","PERIAPSIS":"553.161","RCS_SIZE":"LARGE","REV_AT_EPOCH":"4161","FILE":"3229234","SEMIMAJOR_AXIS":"6932.894","DECAY_DATE":null,"PERIOD":"95.748","OBJECT_NAME":"STARLINK-2314","OBJECT_TYPE":"PAYLOAD","MEAN_ELEMENT_THEORY":"SGP4","APOAPSIS":"556.358","OBJECT_ID":"2021-018B","CENTER_NAME":"EARTH","LAUNCH_DATE":"2021-03-11","CLASSIFICATION_TYPE":"U","TIME_SYSTEM":"UTC","EPHEMERIS_TYPE":"0","NORAD_CAT_ID":"47788","MEAN_MOTION":"15.03941317","INCLINATION":"53.0511","ELEMENT_SET_NO":"999","RA_OF_ASC_NODE":"25.6047","SITE":"AFETR","TLE_LINE1":"1 47788U 21018B   21335.54182290 -.00010958  00000-0 -76731-3 0  9993","COUNTRY_CODE":"US","ECCENTRICITY":"0.00023060","ARG_OF_PERICENTER":"73.5398","BSTAR":"-0.00076731000000","REF_FRAME":"TEME","TLE_LINE2":"2 47788  53.0511  25.6047 0002306  73.5398 286.5843 15.03941317 41613","EPOCH":"2021-12-01T13:00:13.498560","MEAN_MOTION_DOT":"-0.00010958","MEAN_ANOMALY":"286.5843","MEAN_MOTION_DDOT":"0.0000000000000"},{"ELEMENT_SET_NO":"999","RA_OF_ASC_NODE":"30.9022","SITE":"AFETR","TLE_LINE1":"1 47789U 21018C   21335.54295064 -.00000083  00000-0  13338-4 0  9990","COUNTRY_CODE":"US","ARG_OF_PERICENTER":"73.3581","ECCENTRICITY":"0.00014080","BSTAR":"0.00001333800000","REF_FRAME":"TEME","TLE_LINE2":"2 47789  53.0565  30.9022 0001408  73.3581 286.7563 15.06389831 41889","EPOCH":"2021-12-01T13:01:50.935296","MEAN_MOTION_DOT":"-0.00000083","MEAN_ANOMALY":"286.7563","MEAN_MOTION_DDOT":"0.0000000000000","GP_ID":"190860429","PERIAPSIS":"546.270","REV_AT_EPOCH":"4188","RCS_SIZE":"LARGE","DECAY_DATE":null,"FILE":"3229140","PERIOD":"95.593","SEMIMAJOR_AXIS":"6925.380","OBJECT_NAME":"STARLINK-2315","OBJECT_TYPE":"PAYLOAD","APOAPSIS":"548.220","MEAN_ELEMENT_THEORY":"SGP4","OBJECT_ID":"2021-018C","CENTER_NAME":"EARTH","LAUNCH_DATE":"2021-03-11","TIME_SYSTEM":"UTC","CLASSIFICATION_TYPE":"U","EPHEMERIS_TYPE":"0","MEAN_MOTION":"15.06389831","NORAD_CAT_ID":"47789","INCLINATION":"53.0565"},{"FILE":"3229140","PERIOD":"95.592","DECAY_DATE":null,"SEMIMAJOR_AXIS":"6925.350","RCS_SIZE":"LARGE","REV_AT_EPOCH":"4202","GP_ID":"190861180","PERIAPSIS":"546.087","OBJECT_ID":"2021-018D","OBJECT_NAME":"STARLINK-2319","APOAPSIS":"548.342","MEAN_ELEMENT_THEORY":"SGP4","OBJECT_TYPE":"PAYLOAD","EPHEMERIS_TYPE":"0","CENTER_NAME":"EARTH","CLASSIFICATION_TYPE":"U","TIME_SYSTEM":"UTC","LAUNCH_DATE":"2021-03-11","INCLINATION":"53.0566","NORAD_CAT_ID":"47790","MEAN_MOTION":"15.06399603","SITE":"AFETR","COUNTRY_CODE":"US","TLE_LINE1":"1 47790U 21018D   21335.51806490  .00001077  00000-0  91185-4 0  9999","ELEMENT_SET_NO":"999","RA_OF_ASC_NODE":"21.0148","BSTAR":"0.00009118500000","ARG_OF_PERICENTER":"50.4177","ECCENTRICITY":"0.00016280","MEAN_MOTION_DOT":"0.00001077","REF_FRAME":"TEME","EPOCH":"2021-12-01T12:26:00.807360","TLE_LINE2":"2 47790  53.0566  21.0148 0001628  50.4177 309.6955 15.06399603 42028","MEAN_ANOMALY":"309.6955","MEAN_MOTION_DDOT":"0.0000000000000"}];
